School Name,Borough,Geographical District,Project Description,Construction Award,Project type,Building ID,Building Address,City,Zip Code,address_full2,Lat,Lon
P.S. 101 - BROOKLYN,K,21,Addition,65999000,CAP,K101,2360 BENSON AVENUE,Brooklyn,11214,"2360 BENSON AVENUE, Brooklyn 11214",40.59763,-73.99173
P.S./I.S. 338 - BROOKLYN,K,22,Demo,739309,CAP,K338,510 CONEY ISLAND AVE,Brooklyn,11218,"510 CONEY ISLAND AVE, Brooklyn 11218",40.64502,-73.9709
P.S./I.S. 338 - BROOKLYN,K,22,New,67683691,CAP,K338,510 CONEY ISLAND AVE,Brooklyn,11218,"510 CONEY ISLAND AVE, Brooklyn 11218",40.64502,-73.9709
PRE-K CENTER @ 369 93RD STREET - BROOKLYN,K,20,New,27637000,CAP,K613,369 93RD STREET,Brooklyn,11209,"369 93RD STREET, Brooklyn 11209",40.61816,-74.03108
PRE-K CENTER @ 219 25TH STREET - BROOKLYN,K,15,Lease,8464400,CAP,K661,219 25TH STREET,Brooklyn,11232,"219 25TH STREET, Brooklyn 11232",40.66016,-73.99703
PRE-K CENTER @ 1223 CONEY ISLAND AVENUE - BROOKLYN,K,21,Lease,6584000,CAP,K672,1223 CONEY ISLAND AVENUE,Brooklyn,11230,"1223 CONEY ISLAND AVENUE, Brooklyn 11230",40.62781,-73.96555
P.S. 677 - BROOKLYN,K,84,Lease,0,CAP,K677,139 MENAHAN STREET,Brooklyn,11221,"139 MENAHAN STREET, Brooklyn 11221",40.69564788,-73.91961655
P.S. 677 - BROOKLYN,K,84,Lease,3165000,CAP,K677,139 MENAHAN STREET,Brooklyn,11221,"139 MENAHAN STREET, Brooklyn 11221",40.69564788,-73.91961655
PRE-K CENTER @ 1423 62ND STREET - BROOKLYN,K,20,Lease,24882000,CAP,K678,1423 62ND STREET,Brooklyn,11219,"1423 62ND STREET, Brooklyn 11219",40.625462,-73.996443
PRE-K CENTER @ 1355 84TH STREET - BROOKLYN,K,20,Lease,0,CAP,K762,1355 84TH STREET,Brooklyn,11228,"1355 84TH STREET, Brooklyn 11228",40.614504,-74.010994
P.S. 884 - BROOKLYN,K,84,Lease,0,CAP,K884,15 SNYDER AVENUE,Brooklyn,11226,"15 SNYDER AVENUE, Brooklyn 11226",40.64867,-73.9575
P.S. 884 - BROOKLYN,K,84,Lease,2162000,CAP,K884,15 SNYDER AVENUE,Brooklyn,11226,"15 SNYDER AVENUE, Brooklyn 11226",40.64867,-73.9575
I.S. 323 - MANHATTAN,M,2,New,98820000,CAP,M323,75 MORTON STREET,Manhattan,10014,"75 MORTON STREET, Manhattan 10014",40.73115,-74.00777
P.S. 342 (RIVERSIDE CENTER) - MANHATTAN,M,3,New,74425721,CAP,M342,21 WEST END AVENUE,Manhattan,10023,"21 WEST END AVENUE, Manhattan 10023",40.77272,-73.99043
PRE-K CENTER @ 2 LAFAYETTE STREET - MANHATTAN,M,2,Interior,5144096,CAP,M453,2 LAFAYETTE STREET,Manhattan,10007,"2 LAFAYETTE STREET, Manhattan 10007",40.71402,-74.00389
,M,2,,0,CAP,M777,227 WEST 27TH STREET,Manhattan,,"227 WEST 27TH STREET, Manhattan",40.74721,-73.99487
ISHS @ M837,M,78,Lease,387600,CAP,M837,227-243 WEST 61 STREET,Manhattan,10023,"227-243 WEST 61 STREET, Manhattan 10023",40.77261,-73.98832
ISHS @ M837,M,78,Lease,13694000,CAP,M837,227-243 WEST 61 STREET,Manhattan,10023,"227-243 WEST 61 STREET, Manhattan 10023",40.77261,-73.98832
P.S. 303 - QUEENS,Q,28,Addition,65987000,CAP,Q003,108-55 69TH AVENUE,Queens,11375,"108-55 69TH AVENUE, Queens 11375",40.72542995,-73.84410608
P.S. 303 - QUEENS,Q,28,Demo,5183000,CAP,Q003,108-55 69TH AVENUE,Queens,11375,"108-55 69TH AVENUE, Queens 11375",40.72542995,-73.84410608
P.S. 11 - QUEENS,Q,30,Addition,91875000,CAP,Q011,54-25 SKILLMAN AVENUE,Queens,11377,"54-25 SKILLMAN AVENUE, Queens 11377",40.74613,-73.90903
P.S. 19 - QUEENS,Q,24,Addition,95491911,CAP,Q019,98-02 ROOSEVELT AVENUE,Queens,11368,"98-02 ROOSEVELT AVENUE, Queens 11368",40.74934021,-73.8674298
P.S. 24 - QUEENS,Q,25,Addition,82451000,CAP,Q024,141-11 HOLLY AVENUE,Queens,11355,"141-11 HOLLY AVENUE, Queens 11355",40.75150817,-73.81784377
P.S. 24 - QUEENS,Q,25,Demo,2717000,CAP,Q024,141-11 HOLLY AVENUE,Queens,11355,"141-11 HOLLY AVENUE, Queens 11355",40.75150817,-73.81784377
P.S. 35 - QUEENS,Q,29,Addition,42808000,CAP,Q035,191-02 90TH AVENUE,Queens,11423,"191-02 90TH AVENUE, Queens 11423",40.71343,-73.76887
P.S. 49 - QUEENS,Q,24,Addition,31534000,CAP,Q049,63-60 80TH STREET,Queens,11379,"63-60 80TH STREET, Queens 11379",40.71984223,-73.8751279
P.S. 50 - QUEENS,Q,28,Addition,55182000,CAP,Q050,143-26 101 AVENUE,Queens,11435,"143-26 101 AVENUE, Queens 11435",40.69491,-73.80682
I.S. 125 - QUEENS,Q,24,Addition,83800000,CAP,Q125,46-02 47 AVENUE,Queens,11377,"46-02 47 AVENUE, Queens 11377",40.74043,-73.91875
P.S. 143 - QUEENS,Q,24,Demo,2688000,CAP,Q143,34-74 113 STREET,Queens,11368,"34-74 113 STREET, Queens 11368",40.75530739,-73.85518295
P.S. 163 - QUEENS,Q,25,Addition,43834000,CAP,Q163,159-01 59 AVENUE,Queens,11365,"159-01 59 AVENUE, Queens 11365",40.74111,-73.80877
P.S. 176 - QUEENS,Q,29,Addition,50247000,CAP,Q176,120-45 235 STREET,Queens,11411,"120-45 235 STREET, Queens 11411",40.68547096,-73.72994296
P.S. 92 - QUEENS,Q,30,Addition,42410002,CAP,Q292,99-01 34TH AVENUE,Queens,11368,"99-01 34TH AVENUE, Queens 11368",40.75598,-73.86874
P.S. 298 - QUEENS,Q,24,New,76850000,CAP,Q298,50-51 98TH STREET,Queens,11368,"50-51 98TH STREET, Queens 11368",40.74112,-73.86339
PRE-K CENTER @ 70-24 47TH AVENUE - QUEENS,Q,24,Lease,2458500,CAP,Q321,70-24 47TH AVENUE,Queens,11377,"70-24 47TH AVENUE, Queens 11377",40.73897323,-73.89353369
P.S. 332 - QUEENS,Q,26,New,66643000,CAP,Q332,210-07 48TH AVENUE,Queens,11364,"210-07 48TH AVENUE, Queens 11364",40.75509,-73.77087
P.S. 335 - QUEENS,Q,27,New,70885000,CAP,Q335,150-15 RALEIGH STREET,Queens,11418,"150-15 RALEIGH STREET, Queens 11418",40.66805537,-73.83721395
IS/HS 336 - QUEENS,Q,78,Lease,19987000,CAP,Q336,124-06 14TH AVENUE,Queens,11356,"124-06 14TH AVENUE, Queens 11356",40.78513,-73.84351
PRE-K CENTER @ 32-52 37TH STREET - QUEENS,Q,30,Lease,6813171,CAP,Q397,32-52 37TH STREET,Queens,11103,"32-52 37TH STREET, Queens 11103",40.7585357,-73.92163692
P.S. 398 - QUEENS,Q,30,Demo,1708504,CAP,Q398,69-01 34TH AVENUE,Queens,11377,"69-01 34TH AVENUE, Queens 11377",40.75276,-73.8967
PRE-K CENTER @ JACKSON AVENUE - QUEENS,Q,30,Lease,8248692,CAP,Q972,27-35 JACKSON AVENUE,Queens,11101,"27-35 JACKSON AVENUE, Queens 11101",40.74816,-73.94031
P.S. 82 - STATEN ISLAND,R,31,Lease,9271638,CAP,R082,104 GORDON STREET,Staten Is,10304,"104 GORDON STREET, Staten Is 10304",40.62431702,-74.08271352
CURTIS HIGH SCHOOL ANNEX - STATEN ISLAND,R,78,Addition,69360558,CAP,R453,105B HAMILTON AVENUE,Staten Is,10301,"105B HAMILTON AVENUE, Staten Is 10301",40.64528,-74.08146
SUSAN E. WAGNER HS ANNEX - STATEN ISLAND,R,78,Addition,24981900,CAP,R462,1220 MANOR ROAD,Staten Is,10314,"1220 MANOR ROAD, Staten Is 10314",40.59856286,-74.12318536
P.S. 14 - BRONX,X,8,Addition,50850000,CAP,X014,3041 BRUCKNER BLVD,Bronx,10461,"3041 BRUCKNER BLVD, Bronx 10461",40.83556,-73.82583
P.S. 46 - BRONX,X,10,Addition,84478000,CAP,X046,279 EAST 196 STREET,Bronx,10458,"279 EAST 196 STREET, Bronx 10458",40.86696,-73.89063
P.S. 46 - BRONX,X,10,Demo,2775000,CAP,X046,279 EAST 196 STREET,Bronx,10458,"279 EAST 196 STREET, Bronx 10458",40.86696,-73.89063
P.S. 56 - BRONX,X,10,Addition,49723000,CAP,X056,341 EAST 207 STREET,Bronx,10467,"341 EAST 207 STREET, Bronx 10467",40.87546,-73.87491
P.S. 317 - BRONX,X,8,New,49393937,CAP,X317,1028 WHITE PLAINS ROAD,Bronx,10472,"1028 WHITE PLAINS ROAD, Bronx 10472",40.82661505,-73.85980465
PRE-K CENTER 2 @ 2490-2500 WEBSTER AVENUE - BRONX,X,10,Lease,11645000,CAP,X432,2490-2500 WEBSTER AVE,Bronx,10458,"2490-2500 WEBSTER AVE, Bronx 10458",40.8606,-73.89184
PRE-K CENTER @ 2510 MARION AVENUE - BRONX,X,10,Lease,9167000,CAP,X444,2510 MARION AVENUE,Bronx,10458,"2510 MARION AVENUE, Bronx 10458",40.86107,-73.89302
P.S. 315 - BRONX,X,10,Lease,14400000,CAP,X779,2865 CLAFLIN AVENUE,Bronx,10468,"2865 CLAFLIN AVENUE, Bronx 10468",40.87359,-73.89974
P.S. 3 - BROOKLYN,K,13,PLANYC BOILER CNVRSN/PLANYC CLIMATE CTRL,5811800,CIP,K003,50 JEFFERSON AVENUE,Brooklyn,11216,"50 JEFFERSON AVENUE, Brooklyn 11216",40.68231,-73.955219
I.S. 14 - BROOKLYN,K,22,WATER PENETRATION/PLANYC BOILER/PLANYC CLIMATE,8218900,CIP,K014,2424 BATCHELDER STREET,Brooklyn,11235,"2424 BATCHELDER STREET, Brooklyn 11235",40.59349,-73.9378
P.S. 15 - BROOKLYN,K,15,SANDY - INSTALL TEMPORARY BOILERS,550000,CIP,K015,71 SULLIVAN STREET,Brooklyn,11231,"71 SULLIVAN STREET, Brooklyn 11231",40.67708,-74.01187
P.S. 19 - BROOKLYN,K,14,FY16 RESO A PLAYGROUND REDVELOPMENT,345025,CIP,K019,325 SOUTH 3RD STREET,Brooklyn,11211,"325 SOUTH 3RD STREET, Brooklyn 11211",40.70968,-73.95442
P.S. 25 - BROOKLYN,K,16,ROOFS/PARAPETS/EXT MASONRY/EXT DOORS,6297397,CIP,K025,787 LAFAYETTE AVENUE,Brooklyn,11221,"787 LAFAYETTE AVENUE, Brooklyn 11221",40.69125,-73.94067
I.S. 393 - BROOKLYN,K,16,FULL PROGRAM ACCESSIBILITY/LOW VOLTAGE ELECTRICAL,6750000,CIP,K026,1014 LAFAYETTE AVENUE,Brooklyn,11221,"1014 LAFAYETTE AVENUE, Brooklyn 11221",40.69198,-73.93149
P.S. 26 - BROOKLYN,K,16,FY13 RESO A PLAYGROUND REDEVELOPMENT,799345,CIP,K026,1014 LAFAYETTE AVENUE,Brooklyn,11221,"1014 LAFAYETTE AVENUE, Brooklyn 11221",40.69198,-73.93149
P.S. 31 - BROOKLYN,K,14,EXTERIOR MASONRY/PARAPETS,3879237,CIP,K031,75 MESEROLE AVENUE,Brooklyn,11222,"75 MESEROLE AVENUE, Brooklyn 11222",40.726969,-73.954141
I.S. 330 - BROOKLYN,K,14,KITCHEN FLOORING/FLOOD/ANSUL SYSTEM,1348916,CIP,K033,70 TOMPKINS AVENUE,Brooklyn,11206,"70 TOMPKINS AVENUE, Brooklyn 11206",40.69697,-73.94681
P.S. 34 - BROOKLYN,K,14,PLANYC BOILER CNVRSN/PLANYC CLIMATE CTRL,4448000,CIP,K034,131 NORMAN AVENUE,Brooklyn,11222,"131 NORMAN AVENUE, Brooklyn 11222",40.72625,-73.9497
P.S. 44 - BROOKLYN,K,13,PLANYC BOILER/PLANYC CLIMATE CTRL/FIRE ALARM,5862800,CIP,K044,432 MONROE STREET,Brooklyn,11221,"432 MONROE STREET, Brooklyn 11221",40.686213,-73.940859
P.S. 46 - BROOKLYN,K,13,AUDITORIUM UPGRADE,689600,CIP,K046,100 CLERMONT AVENUE,Brooklyn,11205,"100 CLERMONT AVENUE, Brooklyn 11205",40.694537,-73.971645
LYONS COMMUNITY SCHOOL - K,K,14,PARAPETS/FLOOD ELIMINATION/ROOFS/MASONRY/GYM UPG,8853000,CIP,K049,223 GRAHAM AVENUE,Brooklyn,11206,"223 GRAHAM AVENUE, Brooklyn 11206",40.70982,-73.94391
J.H.S. 57 - BROOKLYN,K,16,PUBLIC ADDRESS SYSTEM REPLACEMENT,590000,CIP,K057,125 STUYVESANT AVENUE,Brooklyn,11221,"125 STUYVESANT AVENUE, Brooklyn 11221",40.691468,-73.932254
P.S. 73 - BROOKLYN,K,23,EXT MASONRY/FLOOD ELIMINATION/PARAPETS/ROOFS,10789000,CIP,K073,251 MACDOUGAL STREET,Brooklyn,11233,"251 MACDOUGAL STREET, Brooklyn 11233",40.68046,-73.91037
K753 SPED - BROOKLYN,K,13,LOW VOLTAGE ELEC SYSTEM/ANSUL SYSTEM,706260,CIP,K085,510 CLERMONT AVENUE,Brooklyn,11238,"510 CLERMONT AVENUE, Brooklyn 11238",40.682568,-73.969232
I.S. 88 - BROOKLYN,K,15,PLAYNYC BOILER CONVERSION/CLIMATE CONTROL,5896000,CIP,K088,544 7TH AVENUE,Brooklyn,11215,"544 7TH AVENUE, Brooklyn 11215",40.66077,-73.98871
P.S. 95 - BROOKLYN,K,21,PARAPET/ROOFS/EXT MASONRY,4743000,CIP,K095,345 VAN SICKLEN STREET,Brooklyn,11223,"345 VAN SICKLEN STREET, Brooklyn 11223",40.59627531,-73.9750492
P.S. 104 - BROOKLYN,K,20,WATER INFILTRATION/FLOOD/PARAPETS/ROOFS,10521000,CIP,K104,9115 5TH AVENUE,Brooklyn,11209,"9115 5TH AVENUE, Brooklyn 11209",40.61815,-74.0288
P.S. 106 - BROOKLYN,K,32,FY 15 RESO A ROOM CONVERSION,375000,CIP,K106,1328 PUTNAM AVENUE,Brooklyn,11221,"1328 PUTNAM AVENUE, Brooklyn 11221",40.69389,-73.91291
I.S. 349 - BROOKLYN,K,32,SCIENCE LAB UPGRADES,2039000,CIP,K111,35 STARR STREET,Brooklyn,11221,"35 STARR STREET, Brooklyn 11221",40.70027,-73.9281
P.S. 114 - BROOKLYN,K,18,EXTERIOR MASONRY,2188000,CIP,K114,1077 REMSEN AVENUE,Brooklyn,11236,"1077 REMSEN AVENUE, Brooklyn 11236",40.64252,-73.90812
BROOKLYN COMM. HS OF COMMUNICA,K,13,EXTERIOR MASONRY/PARAPETS/ROOFS,10535000,CIP,K117,300 WILLOUGHBY AVENUE,Brooklyn,11205,"300 WILLOUGHBY AVENUE, Brooklyn 11205",40.69256,-73.95834
P.S. 119 - BROOKLYN,K,22,PLANYC BOILER CNVRSN/PLANYC CLIMATE CTRL,5447000,CIP,K119,3829 AVENUE K,Brooklyn,11210,"3829 AVENUE K, Brooklyn 11210",40.62570715,-73.93804157
P.S. 130 - BROOKLYN,K,15,WATER PENETRATION THROUGH EXTERIOR/PARAPETS/ROOFS,12025000,CIP,K130,70 OCEAN PARKWAY,Brooklyn,11218,"70 OCEAN PARKWAY, Brooklyn 11218",40.64897,-73.97585
I.S. 136 - BROOKLYN,K,15,RPZ VALVES/LOW VOLTAGE ELEC SYSTEM,1971000,CIP,K136,4004 4TH AVENUE,Brooklyn,11232,"4004 4TH AVENUE, Brooklyn 11232",40.65205218,-74.00694222
I.S. 821 - BROOKLYN,K,15,FY16 RESO A GYMNASIUM UPGRADE,245842,CIP,K136,4004 4TH AVENUE,Brooklyn,11232,"4004 4TH AVENUE, Brooklyn 11232",40.65205218,-74.00694222
P.S. 138 - BROOKLYN,K,17,LIGHTING REPLACEMENT (DCAS),1696100,CIP,K138,760 PROSPECT PLACE,Brooklyn,11216,"760 PROSPECT PLACE, Brooklyn 11216",40.67392,-73.95144
P.S. 152 - BROOKLYN,K,22,TCU REMOVAL & PLAYGROUND REDEVELOPMENT,1198890,CIP,K152,725 EAST 23 STREET,Brooklyn,11210,"725 EAST 23 STREET, Brooklyn 11210",40.63272,-73.95457
P.S. 160 - BROOKLYN,K,20,EXTERIOR MASONRY/FLOOD ELMNTN/PARAPETS,5700400,CIP,K160,5105 FORT HAMILTON PARKWAY,Brooklyn,11219,"5105 FORT HAMILTON PARKWAY, Brooklyn 11219",40.63691,-73.99903
P.S. 179 - BROOKLYN,K,20,FY16 RESO A AUDITORIUM UPGRADE,160460,CIP,K179,202 AVENUE C,Brooklyn,11218,"202 AVENUE C, Brooklyn 11218",40.640127,-73.977262
P.S. 188 - BROOKLYN,K,21,SANDY:INT/HEATING/ELEC/FLOOD/CLIMATE/VENT/FA,13757000,CIP,K188,3314 NEPTUNE AVENUE,Brooklyn,11224,"3314 NEPTUNE AVENUE, Brooklyn 11224",40.57703,-74.00053
P.S. 192 - BROOKLYN,K,20,DETERIORATED WINDOW WELL WALLS/FLOOD/PARAPETS/ROOF,5387000,CIP,K192,4715 18 AVENUE,Brooklyn,11204,"4715 18 AVENUE, Brooklyn 11204",40.6288,-73.97954
P.S. 193 - BROOKLYN,K,22,TCU REMOVAL & PLAYGROUND REDEVELOPMENT,1298835,CIP,K193,2515 AVENUE L,Brooklyn,11210,"2515 AVENUE L, Brooklyn 11210",40.62208,-73.95032
P.S. 194 - BROOKLYN,K,22,MASONRY/WINDOWS/ROOFS/PARAPETS,4389000,CIP,K194,3117 AVENUE W,Brooklyn,11229,"3117 AVENUE W, Brooklyn 11229",40.59716,-73.93402
P.S. 195 - BROOKLYN,K,22,SANDY- TEMP BOILER,849500,CIP,K195,131 IRWIN STREET,Brooklyn,11235,"131 IRWIN STREET, Brooklyn 11235",40.580181,-73.943498
P.S. 196 - BROOKLYN,K,14,FY16 RESO A LIBRARY UPGRADE,131000,CIP,K196,207 BUSHWICK AVENUE,Brooklyn,11206,"207 BUSHWICK AVENUE, Brooklyn 11206",40.70877,-73.9398
P.S. 198 - BROOKLYN,K,22,PLAYGROUND REDEVELOPMENT AND TCU,1230964.98,CIP,K198,4105 FARRAGUT ROAD,Brooklyn,11210,"4105 FARRAGUT ROAD, Brooklyn 11210",40.63718,-73.93689
I.S. 201 - BROOKLYN,K,20,PARAPETS/EXT MASONRY/CONCRETE/FLOOD/ROOF,20782700,CIP,K201,8010 12 AVENUE,Brooklyn,11228,"8010 12 AVENUE, Brooklyn 11228",40.618977,-74.013682
P.S. 208 - BROOKLYN,K,18,"CRACKED MASONRY, DETERIORATED MORTAR/FLOOD/WINDOWS",2117000,CIP,K208,4801 AVENUE D,Brooklyn,11203,"4801 AVENUE D, Brooklyn 11203",40.64228,-73.93063
I.S. 211 - BROOKLYN,K,18,INTERIOR SPACES/HEATING PLT/ELEC/CLIMATE/FLOOD EL,10968000,CIP,K211,1001 EAST 100 STREET,Brooklyn,11236,"1001 EAST 100 STREET, Brooklyn 11236",40.64350919,-73.89639993
P.S. 225 - BROOKLYN,K,21,FLOOD ELMNTN/ROOFS/EXTERIOR MASONRY/PARAPETS,8677000,CIP,K225,1075 OCEAN VIEW AVENUE,Brooklyn,11235,"1075 OCEAN VIEW AVENUE, Brooklyn 11235",40.58037,-73.9558
P.S. 235 - BROOKLYN,K,18,PLAYGROUND REDEVELOPMENT & TCU,2000000,CIP,K235,525 LENOX ROAD,Brooklyn,11203,"525 LENOX ROAD, Brooklyn 11203",40.655337,-73.940923
I.S. 239 - BROOKLYN,K,21,SANDY:INTERIOR/CONCRETE/HEAT/ELEC/FLOOD/FA,19640000,CIP,K239,2401 NEPTUNE AVENUE,Brooklyn,11224,"2401 NEPTUNE AVENUE, Brooklyn 11224",40.57842,-73.99238
P.S. 235 - BROOKLYN,K,18,STRUCTURAL DEFECTS,890000,CIP,K242,10001 FLATLANDS AVENUE,Brooklyn,11236,"10001 FLATLANDS AVENUE, Brooklyn 11236",40.645966,-73.898607
P.S. 244 - BROOKLYN,K,18,MORTAR JOINTS DETERIOR /FLOOD/PARAPETS/ROOF/WINDOW,10147000,CIP,K244,5404 TILDEN AVENUE,Brooklyn,11203,"5404 TILDEN AVENUE, Brooklyn 11203",40.64842581,-73.92538903
P.S. 251 - BROOKLYN,K,22,FY16 RESO A AUDITORIUM UPGRAD,184300,CIP,K251,1037 EAST 54 STREET,Brooklyn,11234,"1037 EAST 54 STREET, Brooklyn 11234",40.63195,-73.9239
MIDDLE SCHOOL FOR ART & PHILOS,K,18,FY16 RESO A ROOM CONVERSIONS/PARTITIONING,174000,CIP,K252,1084 LENOX ROAD,Brooklyn,11212,"1084 LENOX ROAD, Brooklyn 11212",40.65797,-73.92028
MIDDLE SCHOOL FOR ART & PHILOS,K,18,PLANYC BOILER CONVERSION/CLIMATE CONTROL,7375000,CIP,K252,1084 LENOX ROAD,Brooklyn,11212,"1084 LENOX ROAD, Brooklyn 11212",40.65797,-73.92028
P.S. 254 - BROOKLYN,K,22,SANDY - HEATING/ELEC SYS/FLOOD ELIM/CLIMATE CONTRL,4620000,CIP,K254,1801 AVENUE Y,Brooklyn,11235,"1801 AVENUE Y, Brooklyn 11235",40.59065,-73.95155
I.S. 259 - BROOKLYN,K,20,CRACKED EXTERIOR MASONRY/ROOFS/PARAPETS,10786000,CIP,K259,7305 FT HAMILTON PKWY,Brooklyn,11228,"7305 FT HAMILTON PKWY, Brooklyn 11228",40.62649,-74.01499
I.S. 265 -BROOKLYN,K,13,PLANYC BOILER CNVRSN/PLANYC CLIMATE CTRL,5359400,CIP,K265,101 PARK AVENUE,Brooklyn,11205,"101 PARK AVENUE, Brooklyn 11205",40.69634497,-73.9756
P.S. 272 - BROOKLYN,K,18,PLAYGROUND REDEVELOPMENT AND TCU REMOVAL,1323000,CIP,K272,101-24 SEAVIEW AVENUE,Brooklyn,11236,"101-24 SEAVIEW AVENUE, Brooklyn 11236",40.62656078,-73.90077537
P.S. 279 - BROOKLYN,K,18,SANDY:INTERIOR/HEAT/ELEC/FLOOD/ELEVATOR/HVAC/FA,21599000,CIP,K279,1070 EAST 104 STREET,Brooklyn,11236,"1070 EAST 104 STREET, Brooklyn 11236",40.64427482,-73.89239314
I.S. 281 - BROOKLYN,K,21,SANDY:ELEVATOR UPG/FLOOD/FIRE ALARM,2098915,CIP,K281,8787 24 AVENUE,Brooklyn,11214,"8787 24 AVENUE, Brooklyn 11214",40.59545489,-73.99326684
P.S. 288 - BROOKLYN,K,21,INTERIOR SPACES/HEATING/ELEC/FLOOD/CLIMATE,12853000,CIP,K288,2950 WEST 25 STREET,Brooklyn,11224,"2950 WEST 25 STREET, Brooklyn 11224",40.5743,-73.9921
P.S. 290 - BROOKLYN,K,19,TCU REMOVAL & PLAYGROUND REDEVELOPMENT,810000,CIP,K290,135 SCHENCK AVENUE,Brooklyn,11207,"135 SCHENCK AVENUE, Brooklyn 11207",40.67814,-73.88969
SCHOOL FOR INT'L STUD - K,K,15,DAMAGED EXTERIOR MASONRY/PARAPETS/ROOF,12710000,CIP,K293,284 BALTIC STREET,Brooklyn,11201,"284 BALTIC STREET, Brooklyn 11201",40.68533,-73.99334
I.S. 562 - BROOKLYN,K,32,FY16 RESO A AUDITORIUM UPGRADE,579130,CIP,K296,125 COVERT STREET,Brooklyn,11207,"125 COVERT STREET, Brooklyn 11207",40.68881,-73.91005
P.S. 297 - BROOKLYN,K,14,FY16 RESO A LIBRARY UPGRADE,181700,CIP,K297,700 PARK AVENUE,Brooklyn,11206,"700 PARK AVENUE, Brooklyn 11206",40.69764,-73.94772
LIBERTY AVENUE MIDDLE SCHOOL,K,19,TCU REMOVAL/PLAYGROUND REDEVELOPMENT,707000,CIP,K302,350 LINWOOD STREET,Brooklyn,11208,"350 LINWOOD STREET, Brooklyn 11208",40.67715,-73.88362
P.S. 307 - BROOKLYN,K,13,CRACKED EXT MASONRY/ROOFS/PARAPETS,6721000,CIP,K307,209 YORK STREET,Brooklyn,11201,"209 YORK STREET, Brooklyn 11201",40.70179,-73.98175
P.S. 307 - BROOKLYN,K,13,RENOVATION OF CLASSROOM 332,255965,CIP,K307,209 YORK STREET,Brooklyn,11201,"209 YORK STREET, Brooklyn 11201",40.70179,-73.98175
P.S. 308 - BROOKLYN,K,16,FY14 RESO A LIBRARY UPGRADE,463800,CIP,K308,616 QUINCY STREET,Brooklyn,11221,"616 QUINCY STREET, Brooklyn 11221",40.68856,-73.93541
P.S. 375 - BROOKLYN,K,17,PLANYC BOILER CNVRSN/PLANYC CLIMATE CTRL,6238000,CIP,K320,46 MCKEEVER PLACE,Brooklyn,11225,"46 MCKEEVER PLACE, Brooklyn 11225",40.66483,-73.95925
P.S. 321 - BROOKLYN,K,15,FULL PROGRAM ACCESSIBILITY/FIRE ALARM,5581000,CIP,K321,180 7TH AVENUE,Brooklyn,11215,"180 7TH AVENUE, Brooklyn 11215",40.67165,-73.97803
P.S. 377 - BROOKLYN,K,32,LL 41-16 COMPLIANCE,44175.77,CIP,K377,200 WOODBINE STREET,Brooklyn,11221,"200 WOODBINE STREET, Brooklyn 11221",40.69389,-73.91516
M.S. 354 - BROOKLYN,K,17,LIBRARY UPGRADE,687400,CIP,K390,1224 PARK PLACE,Brooklyn,11213,"1224 PARK PLACE, Brooklyn 11213",40.67259,-73.93726
KINGSBOROUGH EARLY COLLEGE SCH,K,21,ELECTRICAL LIGHTING FIXTURES,1445999,CIP,K400,2630 BENSON AVENUE,Brooklyn,11214,"2630 BENSON AVENUE, Brooklyn 11214",40.59304,-73.98628
KINGSBOROUGH EARLY COLLEGE SCH,K,21,SANDY:INT/HEAT/FLOOD/PIPING/NON-SANDY:PIPING/FLOOD,16343000,CIP,K400,2630 BENSON AVENUE,Brooklyn,11214,"2630 BENSON AVENUE, Brooklyn 11214",40.59304,-73.98628
MIDWOOD HS - BROOKLYN,K,21,CRACKED CONCRETE STRUCTURE/FIELD HOUSE,18211000,CIP,K406,1124 EAST 17 STREET,Brooklyn,11210,"1124 EAST 17 STREET, Brooklyn 11210",40.62284795,-73.95907367
ABRAHAM LINCOLN HS - BROOKLYN,K,21,SANDY: INTERIOR/VENT/ELEC/FLOOD/ATHLETIC FIELD,38162000,CIP,K411,2800 OCEAN PARKWAY,Brooklyn,11235,"2800 OCEAN PARKWAY, Brooklyn 11235",40.58257,-73.96876
BROOKLYN TECH HS - K,K,13,LOW VOLT ELEC SYS/KITCHEN FIRE SUPRESSION SYS,4291000,CIP,K430,29 FT GREENE PLACE,Brooklyn,11217,"29 FT GREENE PLACE, Brooklyn 11217",40.68891,-73.97644
PERFORMING ARTS AND TECH. HS -,K,19,FY14 RESO A GYMNASIUM UPGRADE,1032000,CIP,K435,400 PENNSYLVANIA AVENUE,Brooklyn,11207,"400 PENNSYLVANIA AVENUE, Brooklyn 11207",40.66692,-73.89481
THE INTERNATIONAL HS - BROOKLY,K,17,MASONRY/WINDOWS/PARAPETS/ROOFS/FLOOD ELIMINAITON,20937000,CIP,K440,883 CLASSON AVENUE,Brooklyn,11225,"883 CLASSON AVENUE, Brooklyn 11225",40.669805,-73.96069
NEW UTRECHT HS - BROOKLYN,K,20,ATHLETIC FIELD REPAIRS,5290000,CIP,K446,1601 80 STREET,Brooklyn,11214,"1601 80 STREET, Brooklyn 11214",40.61324,-74.00313
I.S. 382 - BROOKLYN,K,17,ELECTRICAL LIGHTING FIXTURES,1247000,CIP,K465,911 FLATBUSH AVENUE,Brooklyn,11226,"911 FLATBUSH AVENUE, Brooklyn 11226",40.64951,-73.95826
SCIENCE TECH & RESEARCH - K,K,17,FY15 RESO A ELECTRICAL SYSTEMS,790000,CIP,K465,911 FLATBUSH AVENUE,Brooklyn,11226,"911 FLATBUSH AVENUE, Brooklyn 11226",40.64951,-73.95826
BUSHWICK HS OF SOCIAL JUSTICE,K,32,SCHOOL BASED HEALTH CENTER,1250581.23,CIP,K480,400 IRVING AVENUE,Brooklyn,11237,"400 IRVING AVENUE, Brooklyn 11237",40.69693275,-73.9108107
FORT HAMILTON HS - K,K,20,FY14 RESO A AUDITORIUM UPGRADE,428018,CIP,K490,8301 SHORE ROAD,Brooklyn,11209,"8301 SHORE ROAD, Brooklyn 11209",40.626811,-74.038077
SHEEPSHEAD BAY HS - BROOKLYN,K,22,SCHOOL BASED HEALTH CENTER,1570000,CIP,K495,3000 AVENUE X,Brooklyn,11235,"3000 AVENUE X, Brooklyn 11235",40.59314,-73.93663
GEORGE WESTINGHOUSE VOC. HS,K,13,LIBRARY UPGRADE,979200,CIP,K580,105 JOHNSON STREET,Brooklyn,11201,"105 JOHNSON STREET, Brooklyn 11201",40.69501,-73.98565
GEORGE WESTINGHOUSE VOC. HS,K,13,PARAPETS/EXTERIOR MASONRY/ROOFS/FLOOD ELIMINATION,9743000,CIP,K580,105 JOHNSON STREET,Brooklyn,11201,"105 JOHNSON STREET, Brooklyn 11201",40.69501,-73.98565
P.S. 8 - BROOKLYN,K,13,SCIENCE LAB UPGRADES,966800,CIP,K580,105 JOHNSON STREET,Brooklyn,11201,"105 JOHNSON STREET, Brooklyn 11201",40.69501,-73.98565
CLARA BARTON HS - K,K,17,FAILING COPING STONE/ROOFS,7064000,CIP,K600,901 CLASSON AVENUE,Brooklyn,11225,"901 CLASSON AVENUE, Brooklyn 11225",40.67023181,-73.96164606
AUTOMOTIVE TRADES VOC HS - K,K,14,ELECTRICAL LIGHTING FIXTURES,1231000,CIP,K610,50 BEDFORD AVENUE,Brooklyn,11222,"50 BEDFORD AVENUE, Brooklyn 11222",40.72225,-73.95329
WIILIAMSBURG PREP- BROOKLYN,K,14,ROOFS/WINDOWS/PARAPETS/EXT MASONRY,11337000,CIP,K650,257 N 6TH STREET,Brooklyn,11211,"257 N 6TH STREET, Brooklyn 11211",40.71521,-73.95478
BROOKLYN HS OF THE ARTS - BROO,K,15,ANSUL SYS/FIRE ALARM/MECHANICAL SYS - VENTILATION,5186160,CIP,K655,345 DEAN STREET,Brooklyn,11217,"345 DEAN STREET, Brooklyn 11217",40.68376,-73.98046
BROOKLYN HS OF THE ARTS - BROO,K,15,DAMAGED EXTERIOR WALLS/ROOFS,6577000,CIP,K655,345 DEAN STREET,Brooklyn,11217,"345 DEAN STREET, Brooklyn 11217",40.68376,-73.98046
I.S. 340 - BROOKLYN,K,13,ELECTRICAL LIGHTING FIXTURES,283000,CIP,K874,227 STERLING PLACE,Brooklyn,11238,"227 STERLING PLACE, Brooklyn 11238",40.67611,-73.96985
I.S. 266 - BROOKLYN,K,13,MASONRY/PIPING/DOOR/FLOOD/WIN/PARAPETS/ROOF/HVAC,33792000,CIP,K902,62 PARK PLACE,Brooklyn,11217,"62 PARK PLACE, Brooklyn 11217",40.67892,-73.97659
P.S. 1 - MANHATTAN,M,2,RPZ VALVES/LOW VOLTAGE ELECTRICAL/ANSUL SYSTEM,1616020,CIP,M001,8 HENRY STREET,Manhattan,10038,"8 HENRY STREET, Manhattan 10038",40.71274054,-73.99728327
P.S. 5 - MANHATTAN,M,6,FIRE ALARM SYSTEM/SMOKE DAMPERS,1543000,CIP,M005,3703 TENTH AVENUE,Manhattan,10034,"3703 TENTH AVENUE, Manhattan 10034",40.85892,-73.92243
P.S. 5 - MANHATTAN,M,6,PARAPETS/ROOFS/WINDOWS,10770000,CIP,M005,3703 TENTH AVENUE,Manhattan,10034,"3703 TENTH AVENUE, Manhattan 10034",40.85892,-73.92243
FREDERICK DOUGLAS ACADEMY - M,M,5,SCIENCE LAB ACID WASTE LINES,4523000,CIP,M010,2581 7TH AVENUE,Manhattan,10039,"2581 7TH AVENUE, Manhattan 10039",40.82438,-73.93669
P.P.A.S. - MANHATTAN,M,2,FY13 RESO A ROOM CONVERSIONS / PART,480000,CIP,M017,328 WEST 48 STREET,Manhattan,10036,"328 WEST 48 STREET, Manhattan 10036",40.76149,-73.98853
P.P.A.S. - MANHATTAN,M,2,MASONRY/AUD UPG/WIN/FLOOD/PARAPETS/ROOFS/FA,7315000,CIP,M017,328 WEST 48 STREET,Manhattan,10036,"328 WEST 48 STREET, Manhattan 10036",40.76149,-73.98853
P.S. 40 - MANHATTAN,M,2,FY16 RESO A ROOFTOP PLAYGROUND,311000,CIP,M040,319 EAST 19 STREET,Manhattan,10003,"319 EAST 19 STREET, Manhattan 10003",40.73512,-73.9817
J.H.S. 47 (SCH FOR THE DEAF) -,M,2,PARAPETS/WINDOWS/EXTERIOR MASONRY,2654000,CIP,M047,223 EAST 23 STREET,Manhattan,10010,"223 EAST 23 STREET, Manhattan 10010",40.73837,-73.98163
I.S. 54 - MANHATTAN,M,3,MASONRY & GRANITE STEP DEFECTS,883000,CIP,M054,103 WEST 107 STREET,Manhattan,10025,"103 WEST 107 STREET, Manhattan 10025",40.80047,-73.96328
EASTSIDE COMMUNITY HS - M,M,1,FIFTH FLOOR CEILING REPLACEMENT,150000,CIP,M060,420 EAST 12 STREET,Manhattan,10009,"420 EAST 12 STREET, Manhattan 10009",40.72938,-73.9825
P.S. 361 - MANHATTAN,M,1,RPZ VALVES/LOW VOLT/ELEC UPGRADE,2646000,CIP,M061,610 EAST 12 STREET,Manhattan,10009,"610 EAST 12 STREET, Manhattan 10009",40.72773,-73.97838
P.S. 63 - MANHATTAN,M,1,PARAPETS/ROOFS/FLOOD ELIMINATION/EXTERIOR MASONRY,20539600,CIP,M063,121 EAST 3 STREET,Manhattan,10009,"121 EAST 3 STREET, Manhattan 10009",40.72414,-73.9862
P.S. 72 - MANHATTAN,M,4,PARAPETS/MASONRY/RM UPG/FLOOD/ROOF/PLAYGROUND,14061000,CIP,M072,131 EAST 104 STREET,Manhattan,10029,"131 EAST 104 STREET, Manhattan 10029",40.79121,-73.94758
P.S. 72 - MANHATTAN,M,4,SCIENCE LAB UPGRADE,718920,CIP,M072,131 EAST 104 STREET,Manhattan,10029,"131 EAST 104 STREET, Manhattan 10029",40.79121,-73.94758
P.S. 75 - MANHATTAN,M,3,PLAYNYC BOILER CONVERSION/CLIMATE CONTROL,6666000,CIP,M075,735 WEST END AVENUE,Manhattan,10025,"735 WEST END AVENUE, Manhattan 10025",40.79504,-73.97363
P.S. 75 - MANHATTAN,M,3,TEMPORARY BOILER,250000,CIP,M075,735 WEST END AVENUE,Manhattan,10025,"735 WEST END AVENUE, Manhattan 10025",40.79504,-73.97363
BARD COLLEGE HS - MANHATTAN,M,1,NON-SANDY:MASONRY/ROOF/PARAPET/SANDY:FLOOD/MASONRY,6913000,CIP,M097,525 EAST HOUSTON STREET,Manhattan,10002,"525 EAST HOUSTON STREET, Manhattan 10002",40.71872,-73.97599
P.S. 101 - MANHATTAN,M,4,PLANYC BOILER CNVRSN/PLANYC CLIMATE CTRL,3034000,CIP,M101,141 EAST 111 STREET,Manhattan,10029,"141 EAST 111 STREET, Manhattan 10029",40.79571,-73.94434
P.S. 102 - MANHATTAN,M,4,DEFECTIVE CONCRETE BEAM FIRE PROOFING,727000,CIP,M102,315 EAST 113 STREET,Manhattan,10029,"315 EAST 113 STREET, Manhattan 10029",40.79493,-73.93856
P.S. 108 - MANHATTAN,M,4,PLANYC BOILER/PLANC CLIMATE CTRL/LOW VOLT/KITCHEN,6384000,CIP,M108,1615 MADISON AVENUE,Manhattan,10029,"1615 MADISON AVENUE, Manhattan 10029",40.79503,-73.94786
P.S. 241 - MANHATTAN,M,3,FLOOD ELIMINATION,1337000,CIP,M113,240 WEST 113 STREET,Manhattan,10026,"240 WEST 113 STREET, Manhattan 10026",40.80165,-73.95508
P.S. 241 - MANHATTAN,M,3,PLANYC BOILER CONVERSION/CIMATE CONTROL,4697000,CIP,M113,240 WEST 113 STREET,Manhattan,10026,"240 WEST 113 STREET, Manhattan 10026",40.80165,-73.95508
P.S. 333 - MANHATTAN,M,3,EXTERIOR MASONRY/ROOFS/PARAPETS,11148891,CIP,M118,154 WEST 93 STREET,Manhattan,10025,"154 WEST 93 STREET, Manhattan 10025",40.79159,-73.97085
P.S. 123 - MANHATTAN,M,5,FLOOD ELIMINATION,4815000,CIP,M123,301 WEST 140 STREET,Manhattan,10030,"301 WEST 140 STREET, Manhattan 10030",40.81996,-73.94466
P.S. 128 - MANHATTAN,M,6,PLANYC BOILER CNVSN/PLANYC CLIMATE CTRL,6790000,CIP,M128,560 WEST 169 STREET,Manhattan,10032,"560 WEST 169 STREET, Manhattan 10032",40.84137,-73.93905
P.S. 129 - MANHATTAN,M,5,SCIENCE LAB UPGRADES,782100,CIP,M129,425 WEST 130 STREET,Manhattan,10027,"425 WEST 130 STREET, Manhattan 10027",40.81498,-73.95242
P.S. 130 - MANHATTAN,M,2,STRUCTURAL DEFICIENCIES,1097000,CIP,M130,143 BAXTER STREET,Manhattan,10013,"143 BAXTER STREET, Manhattan 10013",40.71874,-73.99844
P.S. 145 - MANHATTAN,M,3,PLANYC BOILER CNVSN/PLANYC CLIMATE CTRL,3073000,CIP,M145,150 WEST 105 STREET,Manhattan,10025,"150 WEST 105 STREET, Manhattan 10025",40.7992,-73.9652
P.S. 146 - MANHATTAN,M,4,PLANYC BOILER CNVRSN/PLANYC CLIMATE CTRL,3332800,CIP,M146,421 EAST 106 STREET,Manhattan,10029,"421 EAST 106 STREET, Manhattan 10029",40.78952,-73.9387
P.S. 152 - MANHATTAN,M,6,FIRE ALARM,927000,CIP,M152,93 NAGLE AVENUE,Manhattan,10040,"93 NAGLE AVENUE, Manhattan 10040",40.8602,-73.92784
P.S. 158 - MANHATTAN,M,2,MASONRY/FLOOD ELIMINATION/ROOFS/WINDOWS/PARAPETS,25859000,CIP,M158,1458 YORK AVENUE,Manhattan,10075,"1458 YORK AVENUE, Manhattan 10075",40.77021,-73.95075
P.S. 165 - MANHATTAN,M,3,EXT MASONRY/ROOFS,6233477,CIP,M165,234 WEST 109 STREET,Manhattan,10025,"234 WEST 109 STREET, Manhattan 10025",40.80298,-73.966
I.S. 167 - MANHATTAN,M,2,FACADE DAMAGE/SITE WORK/FLOOD/PARAPETS/WINDOWS,6157000,CIP,M167,220 EAST 76 STREET,Manhattan,10021,"220 EAST 76 STREET, Manhattan 10021",40.77192,-73.95802
I.S. 167 - MANHATTAN,M,2,FY15 RESO A SCIENCE LAB UPGRADES,425000,CIP,M167,220 EAST 76 STREET,Manhattan,10021,"220 EAST 76 STREET, Manhattan 10021",40.77192,-73.95802
P.S. 183 - MANHATTAN,M,2,EXTERIOR MASONRY/FLOOD ELIMINATION/ PARAPETS/ROOFS,11870000,CIP,M183,419 EAST 66 STREET,Manhattan,10065,"419 EAST 66 STREET, Manhattan 10065",40.7638,-73.95773
HAMILTON GRANGE MIDDLE SCHOOL,M,6,SCIENCE LAB UPGRADE,1098000,CIP,M192,500 WEST 138 STREET,Manhattan,10031,"500 WEST 138 STREET, Manhattan 10031",40.82092,-73.95306
P.S. 132 - MANHATTAN,M,6,FUEL OIL TANK REPLACEMENT,968000,CIP,M233,601 WEST 183 STREET,Manhattan,10033,"601 WEST 183 STREET, Manhattan 10033",40.8507,-73.93299
P.S. 234 - MANHATTAN,M,2,FY16 RESO A AUDITORIUM UPGRADE,195000,CIP,M234,292 GREENWICH STREET,Manhattan,10007,"292 GREENWICH STREET, Manhattan 10007",40.71623,-74.01164
BAYARD RUSTIN EDUCATIONAL COMP,M,2,SCIENCE LAB UPGRADE,4222000,CIP,M440,351 WEST 18 STREET,Manhattan,10011,"351 WEST 18 STREET, Manhattan 10011",40.74305,-74.00233
SEWARD PARK H.S.,M,2,WINDOWS/PARAPETS/FLOOD/EXT MASONRY/ROOFS,18800000,CIP,M445,350 GRAND STREET,Manhattan,10002,"350 GRAND STREET, Manhattan 10002",40.71733,-73.98933
UNIVERSITY NEIGHBORHOOD HS - M,M,1,FIRE ALARM/VENTILATION,3780000,CIP,M446,200 MONROE STREET,Manhattan,10002,"200 MONROE STREET, Manhattan 10002",40.71241,-73.98401
GRAMERCY ARTS HS - MANHATTAN,M,2,ELECTRICAL SYSTEMS/PA SYSTEM,6221001,CIP,M460,40 IRVING PLACE,Manhattan,10003,"40 IRVING PLACE, Manhattan 10003",40.73554,-73.98745
WASHINGTON IRVING H.S.,M,2,WATER STORAGE TANK,1189512,CIP,M460,40 IRVING PLACE,Manhattan,10003,"40 IRVING PLACE, Manhattan 10003",40.73554,-73.98745
WASHINGTON IRVING HS - MANHATT,M,2,EXT. MASONRY/ROOF/PARAPET/ FLOOD ELIM./WINDOWS/GYM,43221000,CIP,M460,40 IRVING PLACE,Manhattan,10003,"40 IRVING PLACE, Manhattan 10003",40.73554,-73.98745
JULIA RICHMAN H.S.,M,2,LL 41-16 COMPLIANCE,38865.86,CIP,M480,317 EAST 67 STREET,Manhattan,10065,"317 EAST 67 STREET, Manhattan 10065",40.76533,-73.95974
BERGTRAUM HS - MANHATTAN,M,2,LIBRARY UPGRADE,2295000,CIP,M520,411 PEARL STREET,Manhattan,10038,"411 PEARL STREET, Manhattan 10038",40.71125,-74.00165
FOOD AND FINANCE HS - MANHATTA,M,2,FY11 RESO A ROOFS,1994000,CIP,M535,525 WEST 50 STREET,Manhattan,10019,"525 WEST 50 STREET, Manhattan 10019",40.76555,-73.99358
PARK WEST H. S. (ECF),M,2,C OF O/C OF O VENT/WATER PLANT/BOILER/ENERGY MGMT,23313000,CIP,M535,525 WEST 50 STREET,Manhattan,10019,"525 WEST 50 STREET, Manhattan 10019",40.76555,-73.99358
A. PHILIP RANDOLPH HS -MANHATT,M,6,LIGHTING REPLACEMENT,1151999,CIP,M540,443 WEST 135 STREET,Manhattan,10031,"443 WEST 135 STREET, Manhattan 10031",40.81814,-73.95001
FASHION INDUSTRIES VOC HS - M,M,2,ACCESSIBILITY,3300000,CIP,M600,225 WEST 24 STREET,Manhattan,10011,"225 WEST 24 STREET, Manhattan 10011",40.74544,-73.99651
CHELSEA VOC HS - MANHATTAN,M,2,LOW VOLTAGE ELECTRICAL SYSTEM/ANSUL SYSTEM,2314098,CIP,M615,131 AVE OF THE AMERICAS,Manhattan,10013,"131 AVE OF THE AMERICAS, Manhattan 10013",40.72464,-74.00484
HS OF GRAPHIC COMM. ARTS (VOC),M,2,PLANYC BOILERS CONVERSION/CLIMATE CONTROL,8627000,CIP,M625,439 WEST 49 STREET,Manhattan,10019,"439 WEST 49 STREET, Manhattan 10019",40.76368691,-73.99121801
M721 SPED - MANHATTAN,M,2,REINFORCE CINDER/FLOORS/ACCESSIBLITY/ELEC UPG/FA,6142800,CIP,M641,16 CLARKSON STREET,Manhattan,10014,"16 CLARKSON STREET, Manhattan 10014",40.72933,-74.00631
I.S. 348 - MANHATTAN,M,6,FY16 RESO A PLAYGROUND UPGRADE,298786,CIP,M859,512 WEST 182 STREET,Manhattan,10033,"512 WEST 182 STREET, Manhattan 10033",40.84899,-73.93146
P.S. 2 - QUEENS,Q,30,FY15 RESO A ACCESSIBILITY,507657,CIP,Q002,75-10 21 AVENUE,Queens,11370,"75-10 21 AVENUE, Queens 11370",40.77029842,-73.8944346
I.S. 5 - QUEENS,Q,24,HVAC/PUBLIC ADDRESS SYSTEM,4710000,CIP,Q005,50-40 JACOBUS STREET,Queens,11373,"50-40 JACOBUS STREET, Queens 11373",40.73728,-73.88804
P.S. 12 - QUEENS,Q,24,BOILER REPLACE/ELEC SWITCH UPG/PLANYC CLIMATE CTRL,5887000,CIP,Q012,42-00 72 STREET,Queens,11377,"42-00 72 STREET, Queens 11377",40.74259724,-73.89284804
P.S. 14 - QUEENS,Q,24,ROOFS/PARAPETS/EXT MASONRY,10068000,CIP,Q014,107-01 OTIS AVENUE,Queens,11368,"107-01 OTIS AVENUE, Queens 11368",40.7411,-73.85443
QUEENS ACADEMY HIGH SCHOOL - Q,Q,25,TOILETS-STUDENT,887333,CIP,Q023,138-11 35 AVENUE,Queens,11354,"138-11 35 AVENUE, Queens 11354",40.76563,-73.82829
QUEENS ACADEMY HIGH SCHOOL - Q,Q,25,WATER PENETRATION/EXT MASONRY/ROOFS,1450000,CIP,Q023,138-11 35 AVENUE,Queens,11354,"138-11 35 AVENUE, Queens 11354",40.76563,-73.82829
P.S. 26 - QUEENS,Q,26,FY15 RESO A LOW-VOLTAGE ELECTRICAL SYSTEM,536250,CIP,Q026,195-02 69 AVENUE,Queens,11365,"195-02 69 AVENUE, Queens 11365",40.73594,-73.7776
P.S. 354 - QUEENS,Q,28,DEFECTIVE PARAPET WALL/ROOFS/EXT MASONRY,5977000,CIP,Q030,126-10 BEDELL STREET,Queens,11434,"126-10 BEDELL STREET, Queens 11434",40.68035183,-73.77453343
P.S. 32 - QUEENS,Q,25,FY15 RESO A AUDITORIUM UPGRADE,365696,CIP,Q032,171-11 35 AVENUE,Queens,11358,"171-11 35 AVENUE, Queens 11358",40.76543,-73.79434
P.S. 33 - QUEENS,Q,29,ROOF REPAIR/PARAPETS/EXTERIOR MASONRY,8860557,CIP,Q033,91-37 222 STREET,Queens,11428,"91-37 222 STREET, Queens 11428",40.72716,-73.73408
P.S. 42 - QUEENS,Q,27,SANDY:INT/HEATING/FLOOD/CLIMATE/PIPING/HVAC/ELEC,15125767,CIP,Q042,488 BEACH 66 STREET,Queens,11692,"488 BEACH 66 STREET, Queens 11692",40.59435,-73.79506
P.S. 43 - QUEENS,Q,27,SANDY- ELEVATOR REPAIR,412810,CIP,Q043,160 BEACH 29TH STREET,Queens,11691,"160 BEACH 29TH STREET, Queens 11691",40.59371,-73.76152
P.S. 43 - QUEENS,Q,27,SANDY-INTERIOR/HEATING/FLOOD/SHINGLE ROOF/CLIMATE,15000000,CIP,Q043,160 BEACH 29TH STREET,Queens,11691,"160 BEACH 29TH STREET, Queens 11691",40.59371,-73.76152
P.S. 45 - QUEENS,Q,27,FY15 RESO A AUDITORIUM UPGRADE,188000,CIP,Q045,126-28 150 STREET,Queens,11436,"126-28 150 STREET, Queens 11436",40.67230967,-73.78830862
P.S. 52 - QUEENS,Q,29,ELECTRICAL LIGHTING FIXTURES,657500,CIP,Q052,178-37 146 TERRACE,Queens,11434,"178-37 146 TERRACE, Queens 11434",40.67213821,-73.7734375
P.S. 52 - QUEENS,Q,29,TCU REMOVAL & PLAYGROUND REDEVELOPMENT,923949,CIP,Q052,178-37 146 TERRACE,Queens,11434,"178-37 146 TERRACE, Queens 11434",40.67213821,-73.7734375
P.S. 63 - QUEENS,Q,27,FY15 RESO A AUDITORIUM UPGRADE,331000,CIP,Q063,90-15 SUTTER AVENUE,Queens,11417,"90-15 SUTTER AVENUE, Queens 11417",40.67698,-73.84679
P.S. 63 - QUEENS,Q,27,WATER PENETRATION/EXT MASONRY/PARAPETS/ROOFS,4368000,CIP,Q063,90-15 SUTTER AVENUE,Queens,11417,"90-15 SUTTER AVENUE, Queens 11417",40.67698,-73.84679
P.S. 64 - QUEENS,Q,27,FY16 RESO A AUDITORIUM,229777,CIP,Q064,82-01 101 AVENUE,Queens,11416,"82-01 101 AVENUE, Queens 11416",40.68122043,-73.85689167
J.H.S. 72 - QUEENS,Q,28,FY13 RESO A PLAYGROUND REDEVELOPMENT,2277000,CIP,Q072,133-25 GUY R BREWER BOULEVARD,Queens,11434,"133-25 GUY R BREWER BOULEVARD, Queens 11434",40.6561,-73.7674
I.S. 73 - QUEENS,Q,24,LOW VOLT ELECTRICAL SYSTEMS,925000,CIP,Q073,70-02 54 AVENUE,Queens,11378,"70-02 54 AVENUE, Queens 11378",40.72849,-73.8933
I.S. 74 - QUEENS,Q,26,FY16 RESO A AUDITORIUM UPGRADE,192500,CIP,Q074,61-15 OCEANIA STREET,Queens,11364,"61-15 OCEANIA STREET, Queens 11364",40.74529215,-73.76744303
Q075 SPED - QUEENS,Q,24,PLANYC BOILER CNVRSN/PLANYC CLIMATE CTRL,4596000,CIP,Q075,16-66 HANCOCK STREET,Queens,11385,"16-66 HANCOCK STREET, Queens 11385",40.69715,-73.90684
P.S. 79 - QUEENS,Q,25,RPZ VALVE,377000,CIP,Q079,147-27 15 DRIVE,Queens,11357,"147-27 15 DRIVE, Queens 11357",40.78590344,-73.8174694
P.S. 85 - QUEENS,Q,30,RPZ VALVES/LOW VOLTAGE/ELECTRICAL UPG,1658786,CIP,Q085,23-70 31 STREET,Queens,11105,"23-70 31 STREET, Queens 11105",40.77270365,-73.91506817
P.S. 98 - QUEENS,Q,26,WATER PENETRATION,549000,CIP,Q098,40-20 235 STREET,Queens,11363,"40-20 235 STREET, Queens 11363",40.76930693,-73.74941486
P.S. 101 - QUEENS,Q,28,FY15 RESO A AUDITORIUM UPGRADE,459000,CIP,Q101,2 RUSSELL PLACE,Queens,11375,"2 RUSSELL PLACE, Queens 11375",40.715559,-73.843384
P.S. 102 - QUEENS,Q,24,ADA UPGRADE,2777000,CIP,Q102,55-24 VAN HORN STREET,Queens,11373,"55-24 VAN HORN STREET, Queens 11373",40.73347686,-73.8778888
P.S. 105 - QUEENS,Q,27,SANDY:HEATING/ELEC/FLOOD/AUD/PIPING/HVAC/INT/PAVED,21198000,CIP,Q105,420 BEACH 51 STREET,Queens,11691,"420 BEACH 51 STREET, Queens 11691",40.595899,-73.780985
P.S. 114 - QUEENS,Q,27,SANDY:INT/HEATING/ELEC/FLOOD/CLIM/PLAYGRND/PIPING,14780000,CIP,Q114,134-01 CRONSTON AVE,Queens,11694,"134-01 CRONSTON AVE, Queens 11694",40.57822275,-73.85443042
P.S. 115 - QUEENS,Q,26,PLANYC BOILER CNVRSN/PLANYC CLIMATE CTRL,5544000,CIP,Q115,80-51 261 STREET,Queens,11004,"80-51 261 STREET, Queens 11004",40.74406932,-73.70979771
P.S. 116 - QUEENS,Q,29,EXT MASONRY/ROOFS/CONCRETE ROOF DECK/PARAPETS,8800000,CIP,Q116,107-25 WREN PLACE,Queens,11433,"107-25 WREN PLACE, Queens 11433",40.7005132,-73.78185245
P.S. 121 - QUEENS,Q,28,TCU REMOVAL & PLAYGROUND REDEVELOPMENT,968100,CIP,Q121,126-10 109 AVENUE,Queens,11420,"126-10 109 AVENUE, Queens 11420",40.68400524,-73.81583268
P.S. 123 - QUEENS,Q,27,TCU REMOVAL & PLAYGROUND REDEVELOPMENT,1082000,CIP,Q123,145-01 119 AVENUE,Queens,11436,"145-01 119 AVENUE, Queens 11436",40.6789,-73.79555
I.S. 126 - QUEENS,Q,30,FY16 RESO A PLAYGROUND REDEVELOPMENT,172250,CIP,Q126,31-51 21 STREET,Queens,11106,"31-51 21 STREET, Queens 11106",40.76601,-73.92999
P.S. 139 - QUEENS,Q,28,WATER PENETRATION/ROOFS,1456000,CIP,Q139,93-06 63 DRIVE,Queens,11374,"93-06 63 DRIVE, Queens 11374",40.72799,-73.86255
Q752 SPED - QUEENS,Q,28,ELECTRICAL LIGHTING FIXTURES,991000,CIP,Q142,142-10 LINDEN BLVD,Queens,11436,"142-10 LINDEN BLVD, Queens 11436",40.68415893,-73.80131437
I.S. 145 - QUEENS,Q,30,PLANYC BOILER CNVRSN/PLANYC CLIMATE CTRL,8497000,CIP,Q145,33-34 80 STREET,Queens,11372,"33-34 80 STREET, Queens 11372",40.75438,-73.88751
P.S. 151 - QUEENS,Q,30,WATER INFILTRATION/ROOFS/PARAPETS/EXT MASONRY,5182000,CIP,Q151,50-05 31 AVENUE,Queens,11377,"50-05 31 AVENUE, Queens 11377",40.7574762,-73.90876426
J.H.S. 157 - QUEENS,Q,28,FY16 RESO A ROOM CONVERSIONS / PART,229500,CIP,Q157,63-55 102ND STREET,Queens,11374,"63-55 102ND STREET, Queens 11374",40.73228904,-73.85377473
P.S. 160 - QUEENS,Q,28,CHIMNEY/ROOFS/PARAPETS/FLOOD,9370000,CIP,Q160,109-59 INWOOD STREET,Queens,11435,"109-59 INWOOD STREET, Queens 11435",40.68811445,-73.80035683
P.S. 162 - QUEENS,Q,26,PARAPET/FLOOD ELIMINATION/EXT MASONRY/ROOFING,8630000,CIP,Q162,201-02 53 AVENUE,Queens,11364,"201-02 53 AVENUE, Queens 11364",40.74839,-73.77656
P.S. 169 - QUEENS,Q,25,WATER PENETRATION,590000,CIP,Q169,18-25 212 STREET,Queens,11360,"18-25 212 STREET, Queens 11360",40.78233,-73.77843
P.S. 174 - QUEENS,Q,28,FY16 RESO A ROOM CONV/FY16 RESO A SCIENCE LAB UPG,351000,CIP,Q174,65-10 DIETERLE CRESCENT,Queens,11374,"65-10 DIETERLE CRESCENT, Queens 11374",40.7206,-73.86143
Q177 SPED - QUEENS,Q,26,PLANYC BOILER CONVERSION/PLANYC CLIMATE CONTROL,7221000,CIP,Q177,56-37 188 STREET,Queens,11365,"56-37 188 STREET, Queens 11365",40.74358679,-73.78792244
THE SCHOLARS ACADEMY - QUEENS,Q,27,SANDY:AC/FLOOD/ELEC/HEAT/INTER/NON-SANDY:CLIM CTRL,13563283,CIP,Q180,320 BEACH 104 STREET,Queens,11694,"320 BEACH 104 STREET, Queens 11694",40.58408,-73.82556
P.S. 181 - QUEENS,Q,29,FLOORS & WALLS/ROOFS/PARAPETS/EXT MASONRY/FLOOD,4848000,CIP,Q181,148-15 230 STREET,Queens,11413,"148-15 230 STREET, Queens 11413",40.656165,-73.753354
P.S. 184 - QUEENS,Q,25,PLANYC BOILER CNVRSN/PLANYC CLIMATE CTRL,5631800,CIP,Q184,163-15 21 ROAD,Queens,11357,"163-15 21 ROAD, Queens 11357",40.77812125,-73.8000664
THE FLUSHING INTERNATIONAL HS,Q,25,FY14 RESO A ROOM CONVERSIONS/PART,387500,CIP,Q189,144-80 BARCLAY AVENUE,Queens,11355,"144-80 BARCLAY AVENUE, Queens 11355",40.75763,-73.82797
J.H.S. 190 - QUEENS,Q,28,FY15 RESO A ROOM CONVERSIONS/PARITTIONING,304000,CIP,Q190,68-17 AUSTIN STREET,Queens,11375,"68-17 AUSTIN STREET, Queens 11375",40.72278621,-73.85180117
P.S. 191 - QUEENS,Q,26,LIGHTING REPLACEMENT,579750,CIP,Q191,85-15 258 STREET,Queens,11001,"85-15 258 STREET, Queens 11001",40.729072,-73.707099
P.S. 193 - QUEENS,Q,25,WATER PENETRATION,737000,CIP,Q193,152-20 11 AVENUE,Queens,11357,"152-20 11 AVENUE, Queens 11357",40.78936768,-73.80201721
J.H.S. 194 - QUEENS,Q,25,FY16 RESO A LIBRARY UPGRADE,239900,CIP,Q194,154-60 17 AVENUE,Queens,11357,"154-60 17 AVENUE, Queens 11357",40.78322,-73.80697
J.H.S. 194 - QUEENS,Q,25,PLANYC BOILER CNVRSN/PLANYC CLIMATE CTRL,6795000,CIP,Q194,154-60 17 AVENUE,Queens,11357,"154-60 17 AVENUE, Queens 11357",40.78322,-73.80697
P.S. 196 - QUEENS,Q,28,FY12 RESO A AUDITORIUM UPGRADE,999786,CIP,Q196,71-25 113 STREET,Queens,11375,"71-25 113 STREET, Queens 11375",40.72276,-73.83738
P.S. 333 - QUEENS,Q,27,NEW A/C CHILLERS,1278870.32,CIP,Q198,3-65 BEACH 56 STREET,Queens,11692,"3-65 BEACH 56 STREET, Queens 11692",40.59031347,-73.78555674
P.S. 333 - QUEENS,Q,27,REINFORCING/HEATING PLT/ELEC/FLOOD ELIM/CLIMATE CO,12990000,CIP,Q198,3-65 BEACH 56 STREET,Queens,11692,"3-65 BEACH 56 STREET, Queens 11692",40.59031347,-73.78555674
P.S. 205 - QUEENS,Q,26,LIGHTING REPLACEMENT,790797,CIP,Q205,75-25 BELL BLVD,Queens,11364,"75-25 BELL BLVD, Queens 11364",40.738,-73.75638
P.S. 214 - QUEENS,Q,25,PARAPETS/FLOOD/EXT MASONRY/ROOFS,6786000,CIP,Q214,31-15 140 STREET,Queens,11354,"31-15 140 STREET, Queens 11354",40.77018,-73.8277
P.S. 215 - QUEENS,Q,27,FIRE ALARM,1213000,CIP,Q215,535 BRIAR PLACE,Queens,11691,"535 BRIAR PLACE, Queens 11691",40.59956,-73.7582
I.S. 217 - QUEENS,Q,28,FY15 RESO A SCIENCE LAB UPGRADE,417473,CIP,Q217,85-05 144 STREET,Queens,11435,"85-05 144 STREET, Queens 11435",40.71037,-73.81147
P.S. 223 - QUEENS,Q,27,WINDOWS/EXT MASONRY/PARAPETS,4565000,CIP,Q223,125-20 SUTPHIN BLVD,Queens,11434,"125-20 SUTPHIN BLVD, Queens 11434",40.67397729,-73.7889017
P.S. 317 - QUEENS,Q,27,SANDY: HEAT/FLOOD/ELEC/INTERIOR/NON-SANDY: CLIMATE,6339000,CIP,Q225,1-90 BEACH 110 STREET,Queens,11694,"1-90 BEACH 110 STREET, Queens 11694",40.58297843,-73.82240947
I.S. 226 - QUEENS,Q,27,PUBLIC ADDRESS SYSTEM,1054000,CIP,Q226,121-10 ROCKAWAY BOULEVARD,Queens,11420,"121-10 ROCKAWAY BOULEVARD, Queens 11420",40.67571538,-73.81697239
I.S. 226 - QUEENS,Q,27,TCU REMOVAL AND PLAYGROUND REDEVELOPMENT,3960000,CIP,Q226,121-10 ROCKAWAY BOULEVARD,Queens,11420,"121-10 ROCKAWAY BOULEVARD, Queens 11420",40.67571538,-73.81697239
P.S. 242 - QUEENS,Q,25,FLOOD ELIMINATION/ROOFING,983000,CIP,Q242,29-66 137TH STREET,Queens,11354,"29-66 137TH STREET, Queens 11354",40.76977,-73.83198
P.S. / I.S. 270 - QUEENS,Q,29,DEFECTIVE PARAPETS/EXT MASONRY/ROOFS,5347000,CIP,Q270,233-15 MERRICK BLVD,Queens,11422,"233-15 MERRICK BLVD, Queens 11422",40.675046,-73.736191
AUGUST MARTIN HS - QUEENS,Q,27,RENEWAL SCHOOL BASED HEALTH CENTER,1682000,CIP,Q400,156-10 BAISLEY BLVD,Queens,11434,"156-10 BAISLEY BLVD, Queens 11434",40.67406,-73.78274
BAYSIDE HIGH SCHOOL - QUEENS,Q,26,TCU REMOVAL/PLAYGROUND REDEVELOPMENT,853000,CIP,Q405,32-24 CORPORAL KENNEDY STREET,Queens,11361,"32-24 CORPORAL KENNEDY STREET, Queens 11361",40.77185877,-73.78041037
BEACH CHANNEL HS - QUEENS,Q,27,SANDY FIRE ALARM/SANDY PA SYSTEM,8947000,CIP,Q410,100-00 BEACH CHANNEL DRIVE,Queens,11694,"100-00 BEACH CHANNEL DRIVE, Queens 11694",40.58615,-73.82502
BEACH CHANNEL HS - QUEENS,Q,27,SANDY:HEATING/ELEC/FLOOD/CLIMATE/PIPING/INT/GENERA,22190800,CIP,Q410,100-00 BEACH CHANNEL DRIVE,Queens,11694,"100-00 BEACH CHANNEL DRIVE, Queens 11694",40.58615,-73.82502
BEACH CHANNEL HS - QUEENS,Q,27,SANDY REPAIRS-ATHLETIC FIELD,2997608.56,CIP,Q411,100-00 BEACH CHANNEL DRIVE,Queens,11694,"100-00 BEACH CHANNEL DRIVE, Queens 11694",40.58615,-73.82502
BENJAMIN N. CARDOZO HS - QUEEN,Q,26,ATHLETIC FIELDS/TCU REMOVAL & PLAYGROUND REDEVELOP,7897628,CIP,Q415,57-00 223 STREET,Queens,11364,"57-00 223 STREET, Queens 11364",40.75234014,-73.75607296
BENJAMIN N. CARDOZO HS - QUEEN,Q,26,WATER PENETRATION THROUGH FOUNDATION,336289,CIP,Q415,57-00 223 STREET,Queens,11364,"57-00 223 STREET, Queens 11364",40.75234014,-73.75607296
EXCELSIOR PREP HIGH SCHOOL - Q,Q,29,EXT MASONRY/ROOFS/PAVED AREA-CONCRETE,6980000,CIP,Q420,143-10 SPRINGFIELD BLVD,Queens,11413,"143-10 SPRINGFIELD BLVD, Queens 11413",40.66822169,-73.75687066
PREPARATORY ACADEMY FOR WRITER,Q,29,REPAVING PARKING LOT,8743648,CIP,Q421,143-10 SPRINGFIELD BLVD,Queens,11413,"143-10 SPRINGFIELD BLVD, Queens 11413",40.66822169,-73.75687066
FRANCIS LEWIS HS - QUEENS,Q,26,WATER PENETRATION,1469000,CIP,Q430,58-20 UTOPIA PKWY,Queens,11365,"58-20 UTOPIA PKWY, Queens 11365",40.74054662,-73.79287431
FOREST HILLS H.S.,Q,28,CONCRETE PAVED AREAS,3463000,CIP,Q440,67-01 110 STREET,Queens,11375,"67-01 110 STREET, Queens 11375",40.72939201,-73.84558363
FOREST HILLS HS - QUEENS,Q,28,CONCRETE RETAINING WALL,6484000,CIP,Q441,67-01 110 STREET,Queens,11375,"67-01 110 STREET, Queens 11375",40.72939201,-73.84558363
WILLIAM C. BRYANT HS - QUEENS,Q,30,TCU REMOVAL & PLAYGROUND REDEVELOPMENT,2499000,CIP,Q445,48-10 31 AVENUE,Queens,11103,"48-10 31 AVENUE, Queens 11103",40.75707,-73.91116
LONG ISLAND CITY HS - Q,Q,30,FIRE ALARM SYSTEM/BUILDING MGMT SYSTEM,18432800,CIP,Q452,14-30 BROADWAY,Queens,11106,"14-30 BROADWAY, Queens 11106",40.76576174,-73.93276812
FLUSHING HS - QUEENS,Q,25,FY15 RESO A AUDITORIUM UPGRADE,451000,CIP,Q460,35-01 UNION STREET,Queens,11354,"35-01 UNION STREET, Queens 11354",40.76487,-73.8268
AVIATION HS - QUEENS,Q,24,FUEL FIRE/ROOFS/PARAPETS/MASONRY/FLOOD/GYM UPG/WIN,17941252,CIP,Q610,45-30 36 STREET,Queens,11101,"45-30 36 STREET, Queens 11101",40.74358477,-73.92910561
AVIATION HS - QUEENS,Q,24,FY16 RESO A ROOM CONVERSIONS / PART,146000,CIP,Q610,45-30 36 STREET,Queens,11101,"45-30 36 STREET, Queens 11101",40.74358477,-73.92910561
P.S. 16 - QUEENS,Q,24,FY15 RESO A AUDITORIUM UPGRADE,378700,CIP,Q721,41-15 104 STREET,Queens,11368,"41-15 104 STREET, Queens 11368",40.74898,-73.86053
Q721 SPED - QUEENS,Q,24,FY16 RESO A AUDITORIUM UPGRADE,160113,CIP,Q722,57-12 94TH STREET,Queens,11373,"57-12 94TH STREET, Queens 11373",40.7359563,-73.86750856
P.S. 106 - QUEENS,Q,27,DEMOLITION & PAVED AREA/TCU REMOVAL PLAYGROUND RED,2482000,CIP,Q806,180 BEACH 35 STREET,Queens,11691,"180 BEACH 35 STREET, Queens 11691",40.594781,-73.766879
Q811 SPED - QUEENS,Q,26,LL 41/16 COMPLIANCE,747000,CIP,Q811,61-25 MARATHON PKWY,Queens,11362,"61-25 MARATHON PKWY, Queens 11362",40.75676158,-73.72941367
P.S. 65 - QUEENS,Q,27,FY16RESO A LIBRARY UPGRADE,497898,CIP,Q884,103-22 99TH STREET,Queens,11417,"103-22 99TH STREET, Queens 11417",40.68253,-73.84145
P.S. 43 - QUEENS,Q,27,SANDY INTERIOR SPACES/SANDY FLOOD ELIMINATION,3290000,CIP,Q907,12 MARVIN STREET,Queens,11691,"12 MARVIN STREET, Queens 11691",40.59286847,-73.76027446
P.S. 1 - STATEN ISLAND,R,31,EXTERIOR MASONRY/PARAPETS/ROOFS/WINDOWS,11891000,CIP,R001,58 SUMMIT STREET,Staten Island,10307,"58 SUMMIT STREET, Staten Island 10307",40.508638,-74.243949
I.S. 7 - STATEN ISLAND,R,31,FY16 RESO A ROOM CONVERSIONS / PART,212500,CIP,R007,1270 HUGUENOT AVENUE,Staten Island,10312,"1270 HUGUENOT AVENUE, Staten Island 10312",40.52331,-74.18592
P.S. 078 - STATEN ISLAND,R,31,FY16 RESO A AUDITORIUM UPGRADE,235200,CIP,R014,100 TOMPKINS AVENUE,Staten Island,10304,"100 TOMPKINS AVENUE, Staten Island 10304",40.62242,-74.07923
P.S. 19 - STATEN ISLAND,R,31,PARAPETS/FLOOD/AREAWAY WINDOWS/EXT MASONRY,4814365.81,CIP,R019,780 POST AVENUE,Staten Island,10310,"780 POST AVENUE, Staten Island 10310",40.630563,-74.126888
P.S. 29 - STATEN ISLAND,R,31,EXTERIOR MASONRY/ROOFS/PARAPETS,3790030,CIP,R029,1581 VICTORY BLVD,Staten Island,10314,"1581 VICTORY BLVD, Staten Island 10314",40.61404,-74.116199
P.S. 30 - STATEN ISLAND,R,31,FY16 RESO A LOW-VOLTAGE ELECTRICAL SYSTEM,534941,CIP,R030,200 WARDWELL AVE,Staten Island,10314,"200 WARDWELL AVE, Staten Island 10314",40.6181,-74.13308
I.S. 34 - STATEN ISLAND,R,31,FULL PROGRAM ACCESSIBILITY/FIRE ALARM SYSTEM,11177000,CIP,R034,528 ACADEMY AVE,Staten Island,10307,"528 ACADEMY AVE, Staten Island 10307",40.507771,-74.24362
P.S. 35 - STATEN ISLAND,R,31,FY14 RESO A ATHLETIC FIELDS,1280000,CIP,R035,60 FOOTE AVENUE,Staten Island,10301,"60 FOOTE AVENUE, Staten Island 10301",40.61358,-74.09896
P.S. 35 - STATEN ISLAND,R,31,HEATING PLANT/CLIMATE CONTROL,3738000,CIP,R035,60 FOOTE AVENUE,Staten Island,10301,"60 FOOTE AVENUE, Staten Island 10301",40.61358,-74.09896
P.S. 41 - STATEN ISLAND,R,31,MAIN ELECTRICAL SERVICE/LOW VOLTAGE ELEC SYSTEM,1649000,CIP,R041,216 CLAWSON STREET,Staten Island,10306,"216 CLAWSON STREET, Staten Island 10306",40.57392,-74.10908
CSI HS FOR INTERNATIONAL STUDI,R,31,PLAYGROUND REDEVELOPMENT,2923000,CIP,R043,100 ESSEX DRIVE,Staten Island,10314,"100 ESSEX DRIVE, Staten Island 10314",40.581363,-74.159537
P.S. 44 - STATEN ISLAND,R,31,EXTERIOR MASONRY/PARAPETS/ROOFS/WINDOWS,9777000,CIP,R044,80 MAPLE PARKWAY,Staten Island,10303,"80 MAPLE PARKWAY, Staten Island 10303",40.63168,-74.15732
P.S. 44 - STATEN ISLAND,R,31,REPAIR-CERTIFICATE OF OCCUPANCY,1270000,CIP,R044,80 MAPLE PARKWAY,Staten Island,10303,"80 MAPLE PARKWAY, Staten Island 10303",40.63168,-74.15732
P.S. 45 - STATEN ISLAND,R,31,ROOFS/PARAPETS /EXTERIOR MASONRY/FLOOD ELIMINATION,11349891,CIP,R045,58 LAWRENCE AVENUE,Staten Island,10310,"58 LAWRENCE AVENUE, Staten Island 10310",40.62842,-74.10729
P.S. 48 - STATEN ISLAND,R,31,RETAINING WALL,464786,CIP,R048,1055 TARGEE STREET,Staten Island,10304,"1055 TARGEE STREET, Staten Island 10304",40.60259,-74.09033
P.S. 50 - STATEN ISLAND,R,31,FY16 RESO A PLAYGROUND REDEVELOPMEN,329000,CIP,R050,200 ADELAIDE AVENUE,Staten Island,10306,"200 ADELAIDE AVENUE, Staten Island 10306",40.560923,-74.12424
P.S. 52 - STATEN ISLAND,R,31,REPAIR-C OF O/SANDY-FLOOD/SAFETY/HEAT/VENT/INT/ELE,16941000,CIP,R052,450 BUEL AVENUE,Staten Island,10305,"450 BUEL AVENUE, Staten Island 10305",40.58255,-74.08901
I.S. 72 - STATEN ISLAND,R,31,FY16 RESO A AUDITORIUM UPGRADE,184000,CIP,R072,33 FERNDALE AVENUE,Staten Island,10314,"33 FERNDALE AVENUE, Staten Island 10314",40.59276,-74.15863
NEW DORP HS - STATEN ISLAND,R,31,FY14 RESO A AUDITORIUM UPGRADE,724800,CIP,R435,465 NEW DORP LANE,Staten Island,10306,"465 NEW DORP LANE, Staten Island 10306",40.56913508,-74.10713836
CURTIS HS - STATEN ISLAND,R,31,BRIDGE & REPAIR WK/PARAPETS/WASTE SYS/WINDOWS/ROOF,12443000,CIP,R450,105 HAMILTON AVENUE,Staten Island,10301,"105 HAMILTON AVENUE, Staten Island 10301",40.64528,-74.08146
TOTTENVILLE HS - STATEN ISLAND,R,31,FY 16 RESO A WIRING UPGRADE,1335000,CIP,R455,100 LUTEN AVENUE,Staten Island,10312,"100 LUTEN AVENUE, Staten Island 10312",40.528303,-74.193519
RALPH MCKEE VOC HS - S. I.,R,31,FY16 RESO A ROOM CONVERSIONS,226260,CIP,R600,290 ST MARKS PLACE,Staten Island,10301,"290 ST MARKS PLACE, Staten Island 10301",40.64292,-74.07898
P.S. 80 - STATEN ISLAND,R,31,GAS SERVICE,220108,CIP,R880,715 OCEAN TERRACE,Staten Island,10301,"715 OCEAN TERRACE, Staten Island 10301",40.608273,-74.105907
P.S. 80 - STATEN ISLAND,R,31,PAVED AREAS,2856387.3,CIP,R885,715 OCEAN TERRACE,Staten Island,10301,"715 OCEAN TERRACE, Staten Island 10301",40.608273,-74.105907
P.S. 9 - BRONX,X,10,PLANYC BOILER CNVSN/PLANYC CLIMATE CTRL,6542000,CIP,X009,230 EAST 183 STREET,Bronx,10458,"230 EAST 183 STREET, Bronx 10458",40.8571832,-73.89939833
P.S. 25 - BRONX,X,7,EXTERIOR MASONRY/PARAPETS/ROOFS/WINDOWS,11840000,CIP,X025,811 EAST 149 STREET,Bronx,10455,"811 EAST 149 STREET, Bronx 10455",40.81271,-73.90573
P.S. 396 - BRONX,X,10,PLANYC BOILER CNVSN/PLANYC CLIMATE CTRL,5386000,CIP,X026,1930 ANDREWS AVENUE,Bronx,10453,"1930 ANDREWS AVENUE, Bronx 10453",40.85457,-73.91314
P.S. 32 - BRONX,X,10,EXTERIOR MASONRY/WINDOWS/PARAPETS,6239400,CIP,X032,690 EAST 183 STREET,Bronx,10458,"690 EAST 183 STREET, Bronx 10458",40.85200285,-73.88572072
P.S. 33 - BRONX,X,10,PLANYC BOILER CNVSN/PLANYC CLIMATE CTRL,4829000,CIP,X033,2424 JEROME AVENUE,Bronx,10468,"2424 JEROME AVENUE, Bronx 10468",40.86226476,-73.90171606
P.S. 36 - BRONX,X,8,EXT MASONRY/ROOFS/PARAPETS/WINDOWS/EXT DOORS/FLOOD,12843000,CIP,X036,1070 CASTLE HILL AVENUE,Bronx,10472,"1070 CASTLE HILL AVENUE, Bronx 10472",40.829468,-73.849823
P.S. 47 - BRONX,X,12,ROOFS/PARAPETS/MASONRY/FLOOD,9142000,CIP,X047,1794 EAST 172 STREET,Bronx,10472,"1794 EAST 172 STREET, Bronx 10472",40.83253,-73.86697
P.S. 48 - BRONX,X,8,FULL ACCESSIBILITY,9100000,CIP,X048,1290 SPOFFORD AVENUE,Bronx,10474,"1290 SPOFFORD AVENUE, Bronx 10474",40.81442567,-73.88672501
P.S. 66 - BRONX,X,12,RENEWAL SCHOOL BASED HEALTH CENTER,1794786,CIP,X066,1001 JENNINGS STREET,Bronx,10460,"1001 JENNINGS STREET, Bronx 10460",40.83149,-73.88654
P.S. 70 - BRONX,X,9,EXT MASONRY/ROOFS/PARAPETS,6431300,CIP,X070,1691 WEEKS AVENUE,Bronx,10457,"1691 WEEKS AVENUE, Bronx 10457",40.8444,-73.90777
I.S. 424 - BRONX,X,8,DEFECTIVE RETAINING WALL,399000,CIP,X074,730 BRYANT AVENUE,Bronx,10474,"730 BRYANT AVENUE, Bronx 10474",40.81546,-73.88556
I.S. 80 - BRONX,X,10,ACCESSIBILITY,2583000,CIP,X080,149 EAST MOSHOLU PKWY N,Bronx,10467,"149 EAST MOSHOLU PKWY N, Bronx 10467",40.87688,-73.88122
P.S. 81 - BRONX,X,10,WINDOW/ROOFS/EXT MASONRY/FLOOD,3147559,CIP,X081,5550 RIVERDALE AVENUE,Bronx,10471,"5550 RIVERDALE AVENUE, Bronx 10471",40.90357,-73.90495
I.S. 232 - BRONX,X,9,OIL VAULT & STAIRWAY/PIPING/TOILETS/FLOOD,8819000,CIP,X082,1700 MACOMBS ROAD,Bronx,10453,"1700 MACOMBS ROAD, Bronx 10453",40.84914535,-73.91606375
I.S. 113 - BRONX,X,11,FUEL OIL TANK LEAKAGE/CLIMATE CTRL,5677330,CIP,X113,3710 BARNES AVENUE,Bronx,10467,"3710 BARNES AVENUE, Bronx 10467",40.880649,-73.860128
I.S. 123 - BRONX,X,8,RENEWAL SCHOOL BASED HEALTH CENTER,1950000,CIP,X123,1025 MORRISON AVENUE,Bronx,10472,"1025 MORRISON AVENUE, Bronx 10472",40.82535999,-73.87366565
I.S. 125 - BRONX,X,8,LIGHTING REPLACEMENT (DCAS),1300019,CIP,X125,1111 PUGSLEY AVENUE,Bronx,10472,"1111 PUGSLEY AVENUE, Bronx 10472",40.82912,-73.85691
I.S. 322 - BRONX,X,11,PERMANENT REPAIRS (CEILING TILES),2787000,CIP,X135,2441 WALLACE AVENUE,Bronx,10467,"2441 WALLACE AVENUE, Bronx 10467",40.86268,-73.86468
X186 SPED - BRONX,X,12,PARAPET/FLOOD ELIM/EXT MASONRY/ROOFS,11642000,CIP,X136,750 JENNINGS STREET,Bronx,10459,"750 JENNINGS STREET, Bronx 10459",40.83173,-73.89813
I.S. 391 - BRONX,X,10,RENEWAL SBHC,2068500,CIP,X137,2225 WEBSTER AVENUE,Bronx,10457,"2225 WEBSTER AVENUE, Bronx 10457",40.85479,-73.89675
I.S. 244 - BRONX,X,10,ACCESS RAMP & WALL/FLOOD/ROOFS/PARAPETS,4745900,CIP,X143,120 WEST 231 STREET,Bronx,10463,"120 WEST 231 STREET, Bronx 10463",40.875536,-73.9016
I.S. 144 - BRONX,X,11,PLANYC BOILER CONVERSION/CLIMATE CONTROL,5423000,CIP,X144,2545 GUNTHER AVENUE,Bronx,10469,"2545 GUNTHER AVENUE, Bronx 10469",40.86381,-73.83654
I.S. 145 - BRONX,X,9,REPAIR SINK HOLE,653815,CIP,X145,1000 TELLER AVENUE,Bronx,10456,"1000 TELLER AVENUE, Bronx 10456",40.832649,-73.911908
I.S. 339 - BRONX,X,9,RENEWAL SCHOOL BASED HEALTH CENTER,1920000,CIP,X147,1600 WEBSTER AVENUE,Bronx,10457,"1600 WEBSTER AVENUE, Bronx 10457",40.840438,-73.904261
BRONX EARLY COLLEGE ACADEMY,X,9,SCIENCE LAB UPGRADE,2889000,CIP,X166,250 EAST 164 STREET,Bronx,10456,"250 EAST 164 STREET, Bronx 10456",40.82869561,-73.91776867
P.S. 236 - BRONX,X,9,FALLING COPING STONES/EXT MASONRY,2589000,CIP,X173,1871 WALTON AVENUE,Bronx,10453,"1871 WALTON AVENUE, Bronx 10453",40.84883,-73.9097
BRONX MATH PREP - BRONX,X,8,PAVED AREAS-CONCRETE,470000,CIP,X174,456 WHITE PLAINS ROAD,Bronx,10473,"456 WHITE PLAINS ROAD, Bronx 10473",40.81503,-73.856104
P.S. 212 - BRONX,X,12,RENEWAL SBHC,1915000,CIP,X198,1180 TINTON AVENUE,Bronx,10456,"1180 TINTON AVENUE, Bronx 10456",40.82872,-73.90045
P.S. 230 - BRONX,X,9,SEWAGE LEAK/FIRE SYS SPRINKLER/CRACKED CONCRETE/FA,14230000,CIP,X229,275 HARLEM RIVER PARK BRIDGE,Bronx,10453,"275 HARLEM RIVER PARK BRIDGE, Bronx 10453",40.85258184,-73.92141091
I.S. 254 - BRONX,X,10,FACADE/ROOFS,3600000,CIP,X254,2452 WASHINGTON AVENUE,Bronx,10458,"2452 WASHINGTON AVENUE, Bronx 10458",40.85877,-73.89009
MORRIS H.S.,X,9,CERTIFICATE OF OCCUPANCY,5229000,CIP,X400,1110 BOSTON RD,Bronx,10456,"1110 BOSTON RD, Bronx 10456",40.82731,-73.90451
HERBERT H. LEHMAN HS - X,X,11,SANDY ELEC/HEAT/FLOOD/CLIM/SINK HOLES/PLUMBING,29723000,CIP,X405,3000 EAST TREMONT AVENUE,Bronx,10461,"3000 EAST TREMONT AVENUE, Bronx 10461",40.839926,-73.838058
CHRISTOPHER COLUMBUS HS - X,X,11,PARAPETS/ROOFS/EXT MASONRY,5577000,CIP,X415,925 ASTOR AVENUE,Bronx,10469,"925 ASTOR AVENUE, Bronx 10469",40.860444,-73.860734
MONROE ACAD FOR VISUAL ARTS -,X,12,BOILER/CLIMATE CONTROL/WATER INFILTRATION,8511800,CIP,X420,1300 BOYNTON AVENUE,Bronx,10472,"1300 BOYNTON AVENUE, Bronx 10472",40.83182,-73.8787
KINGSBRIDGE INTERNATIONAL HS -,X,10,FY16 RESO A RETRACTABLE WALL,190000,CIP,X430,2780 RESERVOIR AVENUE,Bronx,10468,"2780 RESERVOIR AVENUE, Bronx 10468",40.87069,-73.89759
M.S./H.S. 342 - BRONX,X,10,BOILER FOR SWIMMING,2152000,CIP,X430,2780 RESERVOIR AVENUE,Bronx,10468,"2780 RESERVOIR AVENUE, Bronx 10468",40.87069,-73.89759
I.S. 243 - BRONX,X,10,ROOFS/PARAPETS/EXT MASONRY/WINDOWS,50553000,CIP,X435,500 EAST FORDHAM ROAD,Bronx,10458,"500 EAST FORDHAM ROAD, Bronx 10458",40.85985,-73.8883
DEWITT CLINTON HS - X,X,10,EXTERIOR MASONRY/FLOOD ELIMINATION/PARAPETS/ROOF,27189000,CIP,X440,100 W MOSHOLU PKWY S,Bronx,10468,"100 W MOSHOLU PKWY S, Bronx 10468",40.879877,-73.888943
BRONX HS OF SCIENCE - X,X,10,ROOF REPLACEMENT/PARAPETS,8985000,CIP,X445,75 W 205 STREET,Bronx,10468,"75 W 205 STREET, Bronx 10468",40.87709376,-73.88982273
JOHN F. KENNEDY HS - BRONX,X,10,SCIENCE LAB UPGRADE,5547000,CIP,X475,99 TERRACE VIEW AVENUE,Bronx,10463,"99 TERRACE VIEW AVENUE, Bronx 10463",40.87726,-73.91258
MARBLE HILL INTERNATIONAL HS -,X,10,EXT MASONRY/SCIENCE LAB UPG/INTERIOR SPACES,10711000,CIP,X475,99 TERRACE VIEW AVENUE,Bronx,10463,"99 TERRACE VIEW AVENUE, Bronx 10463",40.87726,-73.91258
ALFRED E. SMITH HS - X,X,7,FY16 RESO A AUDITORIUM UPGRADE,464500,CIP,X600,333 EAST 151 STREET,Bronx,10451,"333 EAST 151 STREET, Bronx 10451",40.81829,-73.91966
X721 SPED - BRONX,X,11,PLANYC BOILER CNVRSN/PLANYC CLIMATE CTRL,5390630,CIP,X722,2697 WESTCHESTER AVENUE,Bronx,10461,"2697 WESTCHESTER AVENUE, Bronx 10461",40.84272,-73.83908
P.S. 226 - BRONX,X,10,DEFECTIVE MASONRY/ROOFS/FLOOD ELIMINATION,2787000,CIP,X826,1950 SEDGWICK AVENUE,Bronx,10453,"1950 SEDGWICK AVENUE, Bronx 10453",40.85598,-73.91616
P.S. 226 - BRONX,X,10,FY08 RESO A GYM UPGRADE,4800000,CIP,X827,1910 SEDGWICK AVENUE,Bronx,10453,"1910 SEDGWICK AVENUE, Bronx 10453",40.85548363,-73.91641185
P.S. 246 - BRONX,X,10,ELEVATOR/EXT MASONRY/FLOOD/PARAPETS/ROOFS/WALL,11448000,CIP,X843,2641 GRAND CONCOURSE,Bronx,10468,"2641 GRAND CONCOURSE, Bronx 10468",40.865967,-73.8953